OBJECTID,DBA,BUILDING,ZIPCODE,long,lat
6,DANTE'S GOURMET FOOD,166,10038,-74.0057,40.7103
42,NEIGHBORHOOD,275,10013,-74.0051,40.7186
54,PLANET GYRO/PLANET BRAVO,94,10006,-74.0135,40.7081
63,FORGE,134,10013,-74.0097,40.7164
72,KAFENEO,80,10005,-74.0073,40.7071
140,NHA TRANG REST.,87,10013,-73.9997,40.7169
195,ANGLERS CLUB OF NEW YORK,101,10004,-74.0116,40.7034
214,BROADWAY CAFE,401,10013,-74.0025,40.7187
222,CHATHAM SQUARE RESTAURANT,6,10038,-73.9981,40.7137
240,LUCKY STRIKES,59,10013,-74.0034,40.7222
246,ANDREWS COFFEE SHOP,116,10038,-74.0057,40.7076
268,TOAD HALL,57,10013,-74.0035,40.7223
290,PRIVATE CLUB,60,10005,-74.0083,40.7065
312,JHANKAR,94,10007,-74.0073,40.7147
317,F.M NEWS,122,10005,-74.0072,40.7053
318,SUBWAY,122,10005,-74.0072,40.7053
384,THE METROPOLITAN GRILL,1,10038,-74.0007,40.7117
446,EUROPA CAFE,199,10038,-74.0043,40.7073
456,KILLARNEY ROSE,80,10005,-74.0087,40.7053
460,SQUARE DINER,33,10013,-74.0073,40.7184
472,SUBWAY,153,10013,-74.0101,40.7159
477,J&P TODA CORP,180,10038,-74.0098,40.71
494,CITY HALL DONUTS,381,10013,-74.0047,40.7214
529,NEW YORK MARRIOTT FINANCIAL CENTER,85,10006,-74.0147,40.7098
530,ANQUET KITCHEN,85,10006,-74.0147,40.7098
531,85 WEST BAR & ROOM SERVICES,85,10006,-74.0147,40.7098
532,ROY'S,85,10006,-74.0147,40.7098
544,GOAT FIFTY,36,10038,-74.0016,40.7076
572,SOPHIE'S CUBAN CUISINE,96,10007,-74.0074,40.7147
573,ASHLEY'S EUROPEAN BAKERY,96,10007,-74.0074,40.7147
593,LAFAYETTE GRILL,54,10013,-74.0027,40.7171
626,BENTON NOVEAU,173,10007,-74.0099,40.7099
655,THE BEEKMAN,15,10038,-74.0063,40.711
674,YIP'S RESTAURANT,18,10004,-74.0123,40.705
680,EAST CORNER,70,10002,-73.9952,40.7136
706,FISH MARKET RESTAURANT,111,10038,-74.002,40.7069
762,ATOMIC WINGS,311,10007,-74.0052,40.7155
782,DIWAN E. KHAAS RESTAURANT,10,10004,-74.0106,40.7081
783,NO 1 LITTLE HOUSE,10,10004,-74.0106,40.7081
784,NO. 1 RESTAURANT,10,10004,-74.0106,40.7081
798,MANHATTAN'S BEST PIZZA INC,20,10004,-74.0122,40.705
812,OKA SUSHI,16,10038,-74.0093,40.7094
881,VEGETARIAN DIM SUM HOUSE,24,10013,-73.9983,40.7149
929,UNITED GROCERY & DELI,177,10013,-74.0081,40.7225
1011,SALT & PEPE,1,10006,-74.0129,40.7063
1058,PETITE ABEILLE,134,10013,-74.0083,40.7168
1079,AU BON PAIN,222,10038,-74.0087,40.7113
1080,MERRILL LYNCH,222,10038,-74.0087,40.7113
1083,KOMBA THAI RESTAURANT,23,10013,-73.9983,40.7149
1084,IL MATTONE,413,10013,-74.0099,40.7214
1100,SUBWAY,28,10004,-74.011,40.7031
1106,339 BROADWAY CORP.,339,10013,-74.0044,40.7165
1192,TWIN CAFE CATERERS,275,10007,-74.0112,40.7152
1193,BALUCHI'S,275,10007,-74.0112,40.7152
1194,KAFFE 1668,275,10007,-74.0112,40.7152
1208,SUGAR BAR RESTUARANT,311,10013,-74.0042,40.7197
1214,ARQUA RESTAURANT,281,10013,-74.0049,40.7187
1221,20,20,10007,-74.0076,40.714
1242,ZAITZEFF,72,10038,-74.0083,40.7096
1289,WOW CAFE,381,10013,-74.003,40.7181
1383,THE BEST OF THE BEST DELI,11,10007,-74.0083,40.7128
1384,SUNNY DELICATESSEN,11,10007,-74.0083,40.7128
1385,LITTLE ITALY PIZZA,11,10007,-74.0083,40.7128
1395,EXCHANGE CAFE,49,10006,-74.0127,40.7065
1417,SHUAN WEI RESTAURANT,45,10038,-73.9969,40.7119
1418,"JIANG, XIU JUAN",45,10038,-73.9969,40.7119
1475,MADE FRESH DAILY,226,10038,-74.0022,40.7075
1531,WHISKEY TAVERN,79,10013,-73.9998,40.7168
1559,LILY O'BRIENS,67,10007,-74.0104,40.7145
1560,STAGE DOOR DELI,26,10007,-74.0097,40.7119
1571,KOKURA JAPANESE RESTAURANT,19,10004,-74.0107,40.7081
1753,TACO BELL EXPRESS,155,10013,-74.0102,40.716
1788,FOOD KING CHINESE RESTAUR,56,10002,-73.9943,40.7117
1800,NOVECENTO,343,10013,-74.0035,40.7227
1806,SALUD,144,10038,-74.0026,40.7071
1809,BALUCHI'S MASALA,60,10004,-74.0112,40.7036
1828,READE STREET PUB & KITCHEN,135,10013,-74.0097,40.7164
1839,GOLDMAN SACHS,180,10005,-74.0049,40.7053
1840,AIG,180,10005,-74.0049,40.7053
1849,ST JOHN'S UNIVERSITY CAFETERIA,101,10007,-74.0123,40.7151
1865,EUREST DINING SERVICE/AMERICAN EXPRESS,200,10007,-74.0158,40.7146
1866,EUREST DINING SERVICE,200,10007,-74.0158,40.7146
1867,AU MANDARIN,200,10007,-74.0158,40.7146
1878,LEI RESTAURANT INC,25,10038,-74.0018,40.7081
1907,SANDWICH HOUSE INC,17,10038,-74.008,40.7109
1913,"KONG XIN RESTAURANT, INC",1,10038,-73.998,40.7134
1940,EDWARD'S,136,10013,-74.0082,40.7168
1943,AI ZHEN FOO CHOW RESTAURANT,68,10002,-73.9952,40.7136
1961,BONCHON CHAMBERS CORP.,98,10007,-74.0075,40.7147
1974,NOBU,105,10013,-74.0087,40.7194
1975,NOBU NEXT DOOR,105,10013,-74.0087,40.7194
1976,BLARNEY STONE,121,10038,-74.0072,40.71
1990,NEW CHINA RED GOURMET,118,10007,-74.0085,40.7152
2013,SCALINI FEDELI,165,10013,-74.0091,40.7173
2040,"DUNKIN' DONUTS, BASKIN ROBBINS",42,10013,-73.9995,40.715
2080,DUNKIN' DONUTS,50,10038,-74.0047,40.7082
2148,MCDONALD'S,317,10007,-74.0051,40.7157
2150,LIBERTY VIEW RESTAURANT,21,10280,-74.0176,40.7081
2151,MJK RESTAURANT,21,10280,-74.0176,40.7081
2235,TRIBECA TAVERN,247,10013,-74.0058,40.7198
2240,MCDONALD'S,52,10038,-74.0047,40.7083
2273,PAX DELI,90,10004,-74.0116,40.704
2274,IMPERIAL CHINA RESTAURANT,90,10004,-74.0116,40.704
2337,AU BON PAIN,200,10280,-74.015,40.7112
2338,SEBASTIANS CATERING,200,10280,-74.015,40.7112
2339,SURVIVORS,200,10280,-74.015,40.7112
2340,WILLIS NORTH AMERICA,200,10280,-74.015,40.7112
2353,KITCHENETTE,156,10007,-74.0103,40.716
2358,RUBEN'S EMPANADAS,505,10013,-74.0031,40.7233
2359,DOWNTOWN KITCHEN LLC,160,10038,-74.0003,40.7078
2438,IOANNIS RESTAURANT,20,10038,-74.0089,40.7098
2439,ROXY COFFEE SHOP,20,10038,-74.0089,40.7098
2446,TRIBECA PIZZERIA,378,10013,-74.0102,40.72
2494,CALABRIA RESTAURANT LLC,214,10038,-74.0025,40.7073
2495,MARKET BAR & GRILL,40,10038,-74.0016,40.7075
2498,CHAMP GOURMET,30,10004,-74.0113,40.706
2499,SUBWAY,30,10004,-74.0113,40.706
2551,WHITE HORSE TAVERN,25,10004,-74.0125,40.7036
2570,THE COUNTRY CAFE,40,10005,-74.0099,40.7066
2626,SULLIVAN & CROMWELL,125,10004,-74.0112,40.7021
2627,CLAUDIA'S COFFEE SHOP,125,10004,-74.0112,40.7021
2638,"27 W.H. BAKE, LLC",27,10004,-74.0131,40.7035
2667,HOP LEE RESTARANT,16,10013,-73.9987,40.7141
2691,MCDONALD'S,160,10038,-74.0102,40.7095
2692,BROADWAY KOSHER CAFE,160,10038,-74.0102,40.7095
2707,HOTEL MILLENIUM HILTON,55,10007,-74.0104,40.7117
2791,CORNER GOURMET II,66,10007,-74.0099,40.7146
2794,DUANE PARK CAFE,157,10013,-74.0087,40.7168
2824,MR SOUP,1,10004,-74.0126,40.7027
2825,FOUNTAIN OF JUICE,1,10004,-74.0126,40.7027
2826,FRIED FRANK CAFETERIA,1,10004,-74.0126,40.7027
2827,GOLDMAN SACHS CAFE,1,10004,-74.0126,40.7027
2828,DUNKIN' DONUTS,1,10004,-74.0126,40.7027
2829,NEW WORLD COFFEE,1,10004,-74.0126,40.7027
2888,WENDY'S,117,10038,-74.0032,40.7079
2898,NEW SHEZAN RESTAURANT,183,10007,-74.0073,40.7157
2940,BUBBY'S,120,10013,-74.0086,40.7199
3105,TRIBECA GRILL,375,10013,-74.0102,40.7197
3143,EVEREST,22,10038,-73.9976,40.7136
3189,GREAT TASTE BAKERY,33,10038,-73.997,40.7124
3190,COLUMBINE,229,10013,-74.0062,40.7194
3213,SAU VOL,101-105,10013,-74.0012,40.7177
3240,HOOK & LADDER II,133,10038,-74.0052,40.7071
3250,MORGAN STANLEY,1,10004,-74.0126,40.7027
3251,MORGAN STANLEY,1,10004,-74.0126,40.7027
3281,ACAPPELLA RESTAURANT,1,10013,-74.0092,40.7156
3292,WALL STREET CAFE,14,10005,-74.011,40.7073
3293,ANDRE'S ENTERPRISE INC,14,10005,-74.011,40.7073
3417,BRIDGE CAFE,279,10038,-74.0011,40.7087
3423,PIZZA ITALIA,11,10004,-74.0123,40.704
3424,ANCORA RISTORANTE,11,10004,-74.0123,40.704
3425,ASIAN FUSION,11,10004,-74.0123,40.704
3435,DIWAN-E-KHAAS,26,10005,-74.0081,40.707
3483,WATER STREET GOURMET,12,10004,-74.012,40.7028
3485,GEE WHIZ,295,10007,-74.011,40.716
3486,THE LITTLE PIE COMPANY LTD,295,10007,-74.011,40.716
3507,GOLDEN CARRIAGE,15,10002,-73.9972,40.7132
3628,AU BON PAIN,60,10004,-74.0115,40.7053
3629,PRET A MANGER,60,10004,-74.0115,40.7053
3644,THE FULL SHILLING,160,10005,-74.0077,40.7058
3654,PIZZA & PASTA DELIGHT,77,10038,-74.0051,40.7089
3655,TJ BYRNE'S BAR,77,10038,-74.0051,40.7089
3656,SUBWAY,15,10004,-74.0106,40.7081
3658,L'ECOLE,462,10013,-74.0005,40.721
3663,WENDY'S,85,10038,-74.008,40.71
3664,NAM VIETNAMESE,110,10013,-74.0086,40.7159
3729,ALL AMERICAN DELI,42,10004,-74.0101,40.7034
3731,CARUSO'S PIZZA,140,10038,-74.0083,40.7105
3741,O'HARA'S,120,10006,-74.0127,40.7096
3747,LE GLACIER,60,10005,-74.0086,40.7059
3748,THE COUNTRY CAFE,60,10005,-74.0086,40.7059
3749,DEUTSCHE BANK- EXEC DINING ROOM,60,10005,-74.0086,40.7059
3750,DEUTSCHE BANK,60,10005,-74.0086,40.7059
3751,DEUTSCHE BANK- CONFERENCE CENTER,60,10005,-74.0086,40.7059
3769,TEXAS ROTISSERIE,94,10038,-74.0061,40.7094
3786,THE GROTTO RESTAURANT,69,10004,-74.0124,40.7055
3787,PITA GRILL,69,10004,-74.0124,40.7055
3802,IRISH PUNT,40,10004,-74.0103,40.7059
3803,BLIMPIE,40,10004,-74.0103,40.7059
3861,NEW YORK VINTNERS,21,10007,-74.0077,40.714
3936,YIP'S ORIENTAL EXPRESS,136,10038,-74.0067,40.7093
3969,BLARNLY STONE,11,10006,-74.014,40.7064
3973,TRADER'S EXPRESS DELI,22,10004,-74.0121,40.705
3978,YELLO,32,10013,-73.9995,40.7147
3988,CAFE HEALTH EXCHANGE,2,10038,-74.0099,40.7097
3991,BURGER KING,55,10038,-74.0048,40.7085
3994,MAGGIE'S CAJUN GRILL,12,10038,-74.0091,40.71
4029,SAM'S DELI,30,10013,-73.9995,40.7147
4041,LE MARAIS 2,15,10038,-74.009,40.71
4070,THE FIRM BUSINESS HOLDINGS,90,10038,-74.006,40.7093
4071,THE FIRM BUSINESS HOLDINGS,90,10038,-74.006,40.7093
4072,EXCHANGE,90,10038,-74.006,40.7093
4073,EXCHANGE,90,10038,-74.006,40.7093
4080,MERCHANT,55,10005,-74.0095,40.7087
4081,STARBUCKS COFFEE,55,10005,-74.0095,40.7087
4082,KOODO SUSHI CORP,55,10005,-74.0095,40.7087
4096,BAYARD'S,1,10004,-74.0096,40.7047
4097,HARRY'S,1,10004,-74.0096,40.7047
4102,CANTINA ARQUA,34,10013,-74.0047,40.7188
4133,WALL STREET BURGER SHOPPE,30,10004,-74.0109,40.7031
4175,YAFFA'S,353,10013,-74.0104,40.7187
4192,WEST SIDE CAFE CORP,323,10013,-74.0038,40.7202
4234,IVY'S BISTRO,385,10013,-74.0102,40.7202
4238,CITY HALL RESTAURANT,131,10013,-74.0074,40.7162
4246,51 DONUT SHOP CO,51,10038,-73.9968,40.7117
4258,PING'S SEAFOOD,22,10013,-73.9987,40.7143
4280,THE BUBBLE LOUNGE,228,10013,-74.0062,40.7193
4320,GIGINO TORRTERIA,323,10013,-74.0107,40.7174
4365,DELI & GROCERY,149,10007,-74.0082,40.7146
4366,TASTE OF TANDOR,149,10007,-74.0082,40.7146
4367,RUBEN'S EMPANADAS,149,10007,-74.0082,40.7146
4376,YORGANIC,3,10004,-74.0096,40.7048
4377,HANOVER DELI GOURMET,3,10004,-74.0096,40.7048
4378,JOSEPH'S RISTORANT,3,10004,-74.0096,40.7048
4379,LEONIDAS,3,10004,-74.0096,40.7048
4380,LEO'S BAGELS,3,10004,-74.0096,40.7048
4453,CAFE HANOVER,5,10004,-74.009,40.7049
4479,ALIF DELI & SALAD BAR,200,10013,-74.0069,40.7162
4494,MCDONALD'S,262,10013,-74.0009,40.7187
4516,EAMONN'S IRISH PUB & RESTAURANT,41,10007,-74.0093,40.714
4520,NHA TRANG CENTRE,148,10013,-74.0004,40.7174
4535,NATURALLY DELICIOUS,225,10007,-74.0082,40.7118
4536,OLIVIA GOURMET,225,10007,-74.0082,40.7118
4556,BURGER KING,106,10006,-74.0119,40.7098
4594,NEW YORK STOCK EXCHANGE EXECUTIVE SERVICES,11,10005,-74.0112,40.7074
4615,JOHN STREET BAR & GRILL,17,10038,-74.0089,40.7099
4625,YOUR ASIAN FOOD,90,10007,-74.0072,40.7146
4640,BINY JAPANESE RESTAURANT,393,10013,-74.0049,40.7215
4641,BINY JAPANESE RESTAURANT,393,10013,-74.0049,40.7215
4650,65 BROADWAY CO.,65,10006,-74.0122,40.7071
4651,GREENWICH ST TAVERN,399,10013,-74.01,40.7209
4664,SCOOBIE'S CAFE,321,10007,-74.0049,40.7159
4665,"DUNKIN' DONUTS, BASKIN ROBBINS",321,10007,-74.0049,40.7159
4682,TAKAHACHI  TRIBECA,145,10013,-74.008,40.7164
4726,BROWN BROTHERS CAFETERIA,140,10005,-74.0106,40.709
4763,CARACELLO RISTORANTE,108,10006,-74.0134,40.7085
4775,JIN HUA RESTAURANT INC.,35,10002,-73.9963,40.7135
4776,TYT EAST BROADWAY INC,35,10002,-73.9963,40.7135
4843,BURGER KING,273,10013,-74.0014,40.7191
4849,AMERICAN INTERNATIONAL GROUP,70,10005,-74.0079,40.7063
4850,CAPTAIN'S KETCH,70,10005,-74.0079,40.7063
4851,THE COUNTRY BAKERY CAFE,70,10005,-74.0079,40.7063
4864,JEREMY'S ALE HOUSE,228,10038,-74.0021,40.7076
4887,NEW FANCY FOODS,351,10013,-74.0039,40.717
4959,SALAAM BOMBAY,317-19,10013,-74.0108,40.7171
5001,STARBUCKS COFFEE,2,10004,-74.0132,40.7041
5002,CHOPOTLE MEXICAN GRILL,2,10004,-74.0132,40.7041
5117,MUDVILLE SALOON,126,10007,-74.0088,40.7153
5120,THE LIBERTINE,15,10038,-74.0069,40.7093
5132,SPAGETTI WESTERN,59,10007,-74.0064,40.7149
5138,QING FENG WANG INC,88,10038,-74.0059,40.7093
5139,TANDOOR PALACE,88,10038,-74.0059,40.7093
5140,BENNY'S THAI CAFE,88,10038,-74.0059,40.7093
5141,CAFE 88,88,10038,-74.0059,40.7093
5276,MADDOG AND BEANS,83,10004,-74.0102,40.704
5283,WO HOP RESTAURANT,15,10013,-73.9987,40.7141
5345,"MILLAU, INC.",253,10013,-74.0056,40.7179
5356,STARBUCKS COFFEE,100,10038,-74.0075,40.7085
5419,ZOIE'S COFFEE SHOP,49,10013,-74.0091,40.7207
5424,SUBWAY,250,10007,-74.0073,40.713
5425,"TRADING POST OF BROADWAY, INC",250,10007,-74.0073,40.713
5436,STARBUCKS COFFEE,100,10005,-74.0071,40.705
5466,AROME DELI,325,10007,-74.0048,40.716
5474,BITS BITE & BAGELS,22,10007,-74.0085,40.7129
5499,FRANCES TAVERN RESTAURANT,54,10004,-74.0114,40.7035
5508,MANNA ONE BAKERY,27,10038,-73.9971,40.7126
5524,SHO SHAUN HERGATT,40,10004,-74.0113,40.7058
5532,GOLDMAN SACHS,85,10004,-74.0116,40.7042
5533,GOLDMAN SACHS,85,10004,-74.0116,40.7042
5556,"LES CAFES LACOLOMBE, LLC",319,10013,-74.004,40.72
5566,HANA JAPANESE & CHINESE CUISINE,59,10038,-74.0088,40.7092
5567,FRIENDLY PIZZERIA,59,10038,-74.0088,40.7092
5575,SUSPENDERS,111,10006,-74.0112,40.7084
5601,MIKE PAPAYA,88,10013,-74.0078,40.7156
5689,FORLINIS RESTAURANT,93,10013,-73.9996,40.7171
5746,AJISEN NOODLE RESTAURANT,14,10013,-73.9987,40.714
5755,MERCANTILE BAR GRILL,126,10005,-74.0088,40.7049
5775,MANON CAFE/LEONIDAS,120,10005,-74.0111,40.7085
5776,ASHBY'S SPECIALTY,120,10005,-74.0111,40.7085
5777,LITTLE LAD'S BAKERY AND CAFE,120,10005,-74.0111,40.7085
5778,CAPITAL GRILLE #8039,120,10005,-74.0111,40.7085
5784,FOOD SING 88,2,10038,-73.9976,40.7135
5785,OLD LAO SAN TIPICAL LOCAL DISH,2,10038,-73.9976,40.7135
5803,GULIANO'S,88,10004,-74.0116,40.7041
5837,SUBWAY,165,10007,-74.0078,40.7151
5838,CAPRI CAFE,165,10007,-74.0078,40.7151
5839,BABAGHANOUSH,165,10007,-74.0078,40.7151
5840,"MIMI'S CAFE & WHOLE FOOD, INC",165,10007,-74.0078,40.7151
5857,SOMA BY NATURE,123,10038,-74.0069,40.7091
5873,THE PATRIOT SALOON,110,10007,-74.0083,40.7151
5984,TERRACE FISH & CHIP,77,10004,-74.0103,40.7039
5985,MY DADDY PIZZA,77,10004,-74.0103,40.7039
5986,FULTON EMPANADAS,77,10004,-74.0103,40.7039
5987,"BINGO DELI, INC.",77,10004,-74.0103,40.7039
5988,GOLDEN CHOPSTICKS ON PEARL,77,10004,-74.0103,40.7039
5992,MILBANK TWEED HADLEY & MCCLOY,1,10005,-74.0096,40.7084
5993,J P MORGAN CHASE CAFETERIA,1,10005,-74.0096,40.7084
6006,NANCY WHISKEY PUB,1,10013,-74.005,40.7205
6031,DEAN'S,349,10013,-74.0104,40.7186
6173,EXCHANGE HOTEL,129,10005,-74.0064,40.7052
6183,WINNIE'S BAR,104,10013,-73.9998,40.7161
6245,S.J. SOUTH & SONS,273,10013,-74.0051,40.7185
6259,PACE UNIVERSITY,1,10038,-74.0069,40.7118
6309,TABLE TALES,265,10038,-74.0014,40.7085
6344,THE CUPPING ROOM,359,10013,-74.0032,40.723
6349,HEALTH KING,65,10038,-74.0086,40.7094
6382,ROCKWELL'S,105,10004,-74.0115,40.703
6397,SWEET SPRING RESTAURANT INC.,25,10002,-73.9971,40.7127
6581,STARBUCKS COFFEE,55,10004,-74.0115,40.7052
6582,CAFE DOPPIO,55,10004,-74.0115,40.7052
6583,"XANDO COFFEE AND BAR, COSI SANDWICH BAR",55,10004,-74.0115,40.7052
6584,HALE & HEARTY SOUPS,55,10004,-74.0115,40.7052
6706,FLOR DE SOL,361,10013,-74.0103,40.7191
6762,KOSHER LUNCHEONETTE 56,56,10038,-74.0049,40.7085
6764,THE ORIGINAL SOUPMAN,10,10005,-74.0092,40.7044
6775,NORTH KIOSK #2,1,10007,-74.0044,40.7128
6776,YASAS,1,10007,-74.0044,40.7128
6777,MYLIL GRIDDLE,1,10007,-74.0044,40.7128
6786,SOPHIE'S CUBAN CUISINE,141,10038,-74.0081,40.7104
6810,CORDATO'S,94 1/2,10006,-74.0135,40.7081
6825,NEBRASKA STEAKHOUSE,15,10004,-74.0121,40.704
6826,URBAN LOBSTER SHACK,15,10004,-74.0121,40.704
6835,KNITTING FACTORY,74,10013,-74.0052,40.7174
6877,SEAHORSE,259,10038,-74.0006,40.7083
6883,KYOTO OF JAPAN,76,10004,-74.0104,40.7039
6884,EXCEL FOOD CORPORATION,76,10004,-74.0104,40.7039
6908,STARBUCKS COFFEE,195,10007,-74.0094,40.7105
6909,BAGUETTES & COMPANY,195,10007,-74.0094,40.7105
7003,MANNA TWO,87,10002,-73.9938,40.7137
7025,ABC CHINESE RESTAURANT,34,10013,-73.9987,40.715
7026,PAPATZUL,55,10013,-74.0036,40.7223
7036,THE COUNTRY KITCHEN,76,10038,-74.0053,40.709
7037,LISA'S PIZZA,76,10038,-74.0053,40.709
7051,SQUIRE COFFEE SHOP,80,10038,-74.0039,40.7086
7073,MGM DONUTS LLC,130,10007,-74.0087,40.714
7096,STARBUCKS COFFEE,165,10006,-74.0102,40.7096
7097,BANK OF NOVA,165,10006,-74.0102,40.7096
7127,MCDONALD'S,6,10004,-74.0122,40.7028
7178,"NEW WALOY SNACKS, INC",67B,10002,-73.9952,40.7136
7309,ALBACHIARA RESTAURANT,2,10007,-74.0036,40.7137
7310,ALBACHIARA RESTAURANT,2,10007,-74.0036,40.7137
7311,CORTE CAFE,2,10007,-74.0036,40.7137
7312,ALBELLA RISTORANTE & BAR,2,10007,-74.0036,40.7137
7313,ALBELLA RISTORANTE & BAR,2,10007,-74.0036,40.7137
7323,PUFFY'S TAVERN,81,10013,-74.0089,40.7185
7334,SUBWAY,106,10006,-74.0134,40.7084
7375,HUDSON RIVER TRADING,32,10005,-74.008,40.7036
7414,CHANTERELLE,2,10013,-74.0089,40.7187
7516,PECKSLIP RESTAURANT,251,10038,-74.0023,40.7081
7541,RAINBOW GOURMET,2,10006,-74.0131,40.7078
7564,SHAWN DELI,106,10007,-74.0061,40.7156
7565,BEIGNET INC,106,10007,-74.0061,40.7156
7576,CAFE FELIX,340,10013,-74.0036,40.7226
7592,CAFE SAGE,108,10038,-74.0059,40.7077
7593,LENNY'S,108,10038,-74.0059,40.7077
7601,SAMANTHA'S,235,10280,-74.0166,40.7096
7604,INATESSO CAFE CASANO,38,10280,-74.0165,40.7062
7637,B FLAT,277,10013,-74.005,40.7186
7710,JAYA MALAYSIAN RESTAURANT,90,10013,-73.9998,40.7169
7778,CANAL SEAFOOD RESTAURANT,264,10013,-74.001,40.7188
7785,BARZINHO INC,225,10013,-74.0062,40.7193
7806,MASTERPIECE PIZZA,2,10006,-74.0131,40.7078
7807,VARIETY MARKET,2,10006,-74.0131,40.7078
7840,THE HARRISON,355,10013,-74.0104,40.7189
7911,GRAND STREET DELI,42,10013,-74.0042,40.7226
7969,HEARTLAND BREWERY,93,10038,-74.0033,40.7062
7988,PHO 89 RESTAURANT,89,10002,-73.9938,40.7138
8003,PIG AND WHISTLE,365,10013,-74.0103,40.7192
8014,WATER TAXI BEACH SOUTH STREET SEAPORT LLC,89,10038,-74.0038,40.7059
8058,INDUSTRIA ARGENTINA,329,10013,-74.0106,40.7177
8061,BERNALDO & ANTONIO,125,10007,-74.0129,40.7142
8113,CHINATOWN SNACK,26,10002,-73.9965,40.7135
8214,DOWNTOWN DELI,107,10007,-74.0092,40.7133
8262,BANK OF NEW YORK CAFE,1,10005,-74.0116,40.7077
8263,FINO RISTORANTE,1,10005,-74.0116,40.7077
8264,BANK OF NEW YORK,1,10005,-74.0116,40.7077
8265,THE BANK OF NEW YORK,1,10005,-74.0116,40.7077
8266,HARU,1,10005,-74.0116,40.7077
8268,EAST MARKET RESTAURANT,75,10002,-73.9945,40.7137
8281,AMY'S HALLMARK,39,10006,-74.0129,40.7063
8355,MANGEZ AVEC MOI,71,10007,-74.0099,40.7147
8379,GUARDIAN LIFE,7,10004,-74.0094,40.7045
8392,DONALD SACKS,220,10282,-74.0164,40.7149
8428,PUSSYCAT LOUNGE,96,10006,-74.0135,40.7081
8434,ASIA ROMA,40,10013,-73.9995,40.715
8472,35-39 LEVERICH,100,10005,-74.007,40.7069
8473,DUNKIN' DONUTS,100,10005,-74.007,40.7069
8474,CHIPOTLE MEXICAN GRILL,100,10005,-74.007,40.7069
8477,ALFANOOSE MIDDLEEASTERN CUISINE,8,10038,-74.0096,40.7096
8491,LAND OF SOHO INC,141,10013,-73.9995,40.7202
8500,STARBUCKS COFFEE,233,10007,-74.0079,40.7123
8501,WOOLWORTH TOWER KITCHEN,233,10007,-74.0079,40.7123
8515,YUNG SUN RESTAURANT,47,10002,-73.9959,40.7136
8566,CHARLY'S DELI,110,10013,-74.0118,40.7095
8567,SUBWAY,297,10013,-74.0045,40.7192
8582,ULYSSES,91,10004,-74.01,40.7042
8595,DUNKIN' DONUTS,132,10038,-74.0067,40.7111
8610,SKJ BROAD SUB,80,10004,-74.0116,40.7043
8729,HIDEAWAY,185,10013,-74.0101,40.7174
8735,BROOME  STREET  BAR,363,10013,-74.0032,40.7231
8737,GINJI JAPANESE RESTAURANT,165,10038,-74.005,40.7061
8751,STARBUCKS COFFEE,471,10013,-74.0004,40.7212
8775,CIPRIANI DOWNTOWN REST,376,10012,-74.0027,40.7236
8809,BUDTHARUSA,109,10006,-74.0142,40.7086
8844,NOODLE VILLAGE CORPORATION,13,10013,-73.9987,40.714
8866,TAZ CAFE,54,10005,-74.0085,40.7067
8873,FULTON EMPANADAS,64,10038,-74.0051,40.7088
8874,L & L HAWAIIAN BARBECUE,64,10038,-74.0051,40.7088
8875,FULTON CHEF,64,10038,-74.0051,40.7088
8876,DUNKIN' DONUTS,64,10038,-74.0051,40.7088
8978,INATESSO PIZZABAR CASANO,28,10280,-74.0166,40.706
9071,INDIAN EXPRESS,18,10007,-74.0081,40.7134
9072,TAJ TRIBECA,18,10007,-74.0081,40.7134
9222,BILLY'S BAKERY,75,10013,-74.0045,40.7179
9279,NEW LANGQI ZHONG HING SEAFOOD INCORPORAT,30,10002,-73.9944,40.7127
9298,GIGINO AT WAGNER PARK,20,10280,-74.0169,40.7073
9315,PATUCA,41,10004,-74.0081,40.7093
9343,BAGEL DELUX & CAFE,80,10013,-74.0018,40.7171
9367,HANA SUSHI AMERICA,374,10013,-74.0102,40.7199
9467,DRIVE 495,495,10012,-73.9996,40.7221
9505,XO CAFE & GRILL,96,10013,-74.0011,40.718
9568,DELMONICOS,56,10004,-74.0103,40.7051
9611,CARMINE'S ITALIAN SEA FOOD,140,10038,-74.0028,40.7073
9625,STARBUCKS COFFEE,291,10007,-74.0058,40.7148
9626,LA CUCINA GOURMET,291,10007,-74.0058,40.7148
9627,ANDY'S ON BROADWAY INC,291,10007,-74.0058,40.7148
9657,NAKED LUNCH,17,10013,-74.0046,40.7225
9678,KENYON & KENYON CAFETERIA,1,10004,-74.014,40.7048
9683,FANTASTIC INTERNET CORP.,22,10002,-73.9966,40.7135
9684,BREAD IN TRIBECA,301,10013,-74.0045,40.7193
9715,IMPERIAL COFFEE HOUSE,108,10007,-74.0082,40.715
9754,BROADWAY CAFE,100,10005,-74.0114,40.7081
9756,IDEYA RESTAURANT,349,10013,-74.0034,40.7228
9778,WIN WON RESTAURANT,8-10,10005,-74.0094,40.709
9869,NOODLE KING,19,10002,-73.9965,40.7129
9872,PANINI & CO CAFE,168,10038,-74.0057,40.7103
9875,THAI SON RESTAURANT,89,10013,-73.9997,40.717
9887,MORAN'S,103,10006,-74.0143,40.7085
9989,CAFE TOMATO,142,10038,-74.0084,40.7105
10080,BOULEY,120,10013,-74.0086,40.7163
10081,BOULEY MARKET,120,10013,-74.0086,40.7163
10109,GOLDEN UNICORN RESTAURANT,18,10002,-73.9967,40.7135
10113,POPEYES CHICKEN & BISCUIT,143,10038,-74.0082,40.7104
10129,PEARL STREET DINER,212,10038,-74.0064,40.707
10147,M 15,52,10013,-74.0033,40.719
10228,SUBWAY,113,10013,-74.0007,40.7183
10229,THE OPEN DOOR,110,10038,-74.0058,40.7077
10380,RYAN'S ALE HOUSE,28,10038,-74.0052,40.7082
10434,KLATCH,9-11,10038,-74.0096,40.7096
10435,MAIDEN HEAVEN 9-11 INC,9-11,10038,-74.0096,40.7096
10436,BAOGUETTE MAIDEN LANE CORP,9-11,10038,-74.0096,40.7096
10437,BAOGUETTE MAIDEN LANE CORP,9-11,10038,-74.0096,40.7096
10501,CHATMAN RESTAURANT,9,10038,-73.9979,40.7138
10531,ZAMS,50,10004,-74.0127,40.7065
10532,PRET A MANGER (USA) LTD,50,10004,-74.0127,40.7065
10657,BRIDGEWATER'S,11,10038,-74.0035,40.7066
10658,J P CHICKEN,11,10038,-74.0035,40.7066
10659,PREP KITCHEN,11,10038,-74.0035,40.7066
10661,SOUTH GATE DINER,17,10002,-73.9972,40.7131
10667,NEW YORK DOLLS,59,10007,-74.0098,40.7142
10668,PAKISTAN TEA HOUSE,176,10013,-74.0074,40.7156
10700,RED,19,10038,-74.0037,40.7069
10742,MIKATA JAPANESE CUISINE,125,10013,-73.9996,40.7174
10755,J.P MUSTARD,22,10038,-74.0038,40.707
10756,SEH JA MEH,114-118,10006,-74.0132,40.7088
10760,ROASTED DELIGHTS,5,10002,-73.9973,40.7137
10761,QJ RESTAURANT INC,5,10002,-73.9973,40.7137
10769,ELIXIR,54,10007,-74.0097,40.7142
10890,TAJIN RESTAURAN,85,10006,-74.0137,40.7077
10945,GOOD GOOD TASTE CHINESE KITCHEN,13A,10002,-73.9946,40.7134
10955,RACCOON LODGE,59,10007,-74.0094,40.7148
11061,ISE RESTAURANT,56,10005,-74.0084,40.7066
11073,BOBBY VAN'S STEAKHOUSE,25,10004,-74.0113,40.706
11106,STONE STREET TAVERN,85,10004,-74.0101,40.7041
11112,NEW J & B INC.,39,10002,-73.9961,40.7136
11113,DEVON AND BLAKELY,3,10281,-74.015,40.7142
11114,COSI,3,10281,-74.015,40.7142
11168,HENG SHING,61,10007,-74.0065,40.7149
11169,HENG SHING,61,10007,-74.0065,40.7149
11223,ENERGY KITCHEN,71,10038,-74.0083,40.7096
11246,TAKE ONE,26,10004,-74.0111,40.7083
11247,TAKE ONE,26,10004,-74.0111,40.7083
11259,UNDERGROUND PIZZA,2A,10004,-74.0098,40.7048
11309,THE HALLMARK OF BATTERY PARK CITY,455,10282,-74.0141,40.7176
11310,HALLMARK DELI,455,10282,-74.0141,40.7176
11316,PEKING DUCK HOUSE,28,10013,-73.9988,40.7146
11332,JOE GOURMET,98,10006,-74.0135,40.7082
11388,AMORE PIZZA,147-51,10013,-74.0099,40.7158
11434,GARY'S VENDING,25,10004,-74.012,40.705
11504,LAHMAGUN,41,10004,-74.0104,40.706
11548,REMIX,24,10007,-74.0083,40.7135
11556,PARIS CAFE,119,10038,-74.0017,40.7071
11558,MCDONALD'S,167,10013,-74.0106,40.7162
11603,PALERMO PIZZA,61,10007,-74.0099,40.7143
11620,HAPPY GARDEN PALACE,54,10002,-73.9957,40.7136
11652,NEW GOOD TASTE INC,41,10002,-73.9947,40.7116
11701,BURGER KING,16,10004,-74.0124,40.705
11779,FAY DA BAKERY,191,10013,-73.9995,40.7186
11833,"MC TRIBECA, LLC",121,10035,-74.0086,40.7201
11868,"CLEARY, GOTTLIEB",1,10006,-74.0111,40.7094
11934,FRESH SALT,146,10038,-74.0026,40.707
11981,PEPOLINO,281,10013,-74.0049,40.721
11989,SANCTUARY TEA,337B,10012,-74.0036,40.7226
12069,MEE SUM COFFEE SHOP,26,10013,-73.9984,40.7149
12096,STIR CAFE,32,10004,-74.0131,40.7061
12097,BENTO NOUVEAU,32,10004,-74.0131,40.7061
12098,LILY'S CHINESE & JAPANESE RESTAURANT,31,10038,-73.9978,40.7121
12151,PALM RESTAURANT,200,10007,-74.0122,40.7169
12157,YAWA JAPANESE CUISINE INC,187,10007,-74.0072,40.7159
12212,BURRITOVILLE,36,10004,-74.0106,40.7032
12222,BABY O'S PIZZA,225,10038,-73.9988,40.7134
12289,STARBUCKS COFFEE,130,10038,-74.0081,40.7104
12374,PAULIE'S PLACE,83,10013,-73.9997,40.7169
12375,"DUNKIN' DONUTS, BASKIN ROBBINS",100,10007,-74.0076,40.7147
12399,MULTI TASTES DINER,23,10038,-73.9999,40.7116
12418,CAFE CAFE,470,10012,-74.0015,40.7226
12424,EK HOPITALITY SERVICE,100,10038,-74.004,40.7104
12467,ONDA,229,10038,-74.0021,40.7075
12504,III L'S PIZZARIA,315,10007,-74.0051,40.7156
12547,GINO'S RESTAURANT,81,10002,-73.9966,40.7107
12576,MAIWAND FAST FOOD,39,10038,-73.9985,40.7119
12648,SBARRO,415,10013,-74.0021,40.7192
12684,PRONTO PIZZA,114,10006,-74.0122,40.7099
12718,HARBOUR CAFEL,29,10038,-74.0017,40.708
12769,BUDDHA BODAI VEGETARIAN RESTAURANT,5,10013,-73.9986,40.7137
12808,TOKYO LUNCH,10,10038,-74.0092,40.71
12820,TRIBECA PARK DELI,1,10013,-74.0056,40.72
12829,PRANZO PIZZA,34,10004,-74.0107,40.7032
12890,TOASTIES,25,10038,-74.0087,40.7098
12934,CAFE WATER,130,10005,-74.007,40.7054
12947,PHO  PASTEUR  RESTAURA,85,10013,-73.9997,40.7169
12975,DELIZIA UNO,26,10007,-74.0084,40.7136
12976,NEW YORK STAR PIZZA L.L.C.,26,10007,-74.0084,40.7136
13007,THE DINER,75,10038,-74.0082,40.7097
13081,ADRIENNE'S PIZZA BAR,54,10004,-74.0102,40.7064
13094,BC CAFE INC.,67A,10002,-73.9952,40.7136
13162,SWICH PRESSED SANDWICHES,83,10038,-74.0076,40.7074
13163,CIPRIANI RESTAURANT 55,55,10005,-74.0092,40.7062
13211,BURRITO MARIACHI,189,10007,-74.0072,40.7159
13214,BEST OF NEW YORK FOOD,150,10005,-74.0063,40.706
13245,LE PAIN QUOTIDIEN,100,10013,-74.0017,40.7214
13267,CRUMBS,67,10005,-74.0083,40.7057
13288,DUNKIN' DONUTS,125,10013,-74.0002,40.7188
13296,TEA JUNCTION LLC,166,10007,-74.0106,40.7161
13312,CIRCA TABAC,32,10013,-74.0045,40.7236
13313,TONY SEA WORLD,321,10013,-74.0039,40.7201
13349,HO YIP RESTAURANT,110-112,10007,-74.012,40.7098
13389,DYLAN,62,10013,-74.0095,40.7221
13398,PAPOO'S,55,10006,-74.0126,40.7067
13443,PAPA JOHN'S,21,10038,-74.0091,40.7093
13444,SUBWAY,21,10038,-74.0091,40.7093
13507,SUBWAY,11,10004,-74.0138,40.7051
13508,CAFE 11,11,10004,-74.0138,40.7051
13509,PLAZA DELI,11,10004,-74.0138,40.7051
13510,11 BROADWAY JUICE BAR OF G'S,11,10004,-74.0138,40.7051
13517,CONCESSION STAND,125,10013,-74.0027,40.7154
13537,FARINELLA,90,10007,-74.0048,40.7164
13562,IL PORTO,1-11,10038,-74.0032,40.7063
13673,CAFE GUSTO,111,10038,-74.0057,40.7077
13683,WALKER'S RESTAURANT,16,10013,-74.0071,40.7198
13742,PARK LANE DELI,56,10007,-74.0063,40.7149
13765,SOHO GRAND HOTEL,310,10013,-74.0043,40.7217
13832,THE CRANKY CHICKEN,5,10038,-74.0005,40.7117
13844,PICASSO PIZZERIA,303,10280,-74.0163,40.7103
13857,THE SODA SHOP,125,10007,-74.0088,40.7153
13940,STARBUCKS COFFEE,95,10013,-74.0092,40.7156
13941,COSMOPOLITAN CAFE,95,10013,-74.0092,40.7156
13965,DUNKIN' DONUTS,139,10038,-74.008,40.7104
14051,GL HAO KE KITCHEN,115,10002,-73.9948,40.7123
14099,STARBUCKS COFFEE,80,10005,-74.0072,40.7059
14100,HALE & HEARTY SOUPS,80,10005,-74.0072,40.7059
14101,AU BON PAIN,80,10005,-74.0072,40.7059
14102,THE PUMP ENGERY FOOD,80,10005,-74.0072,40.7059
14106,COSMO DAILY NEWS,95,10013,-74.0092,40.7156
14108,ESSEX WORLD CAFE,112,10006,-74.0121,40.7099
14113,DOMINO'S PIZZA,181,10007,-74.0073,40.7157
14157,TRIBECA CINEMA,54,10013,-74.0066,40.7212
14206,PERLE,62,10004,-74.0111,40.7036
14208,THALASSA,179,10013,-74.0095,40.7194
14216,CAFE BRAVO,11,10004,-74.0092,40.7043
14217,CAFE BRAVO,11,10004,-74.0092,40.7043
14220,"CANDIDO & TONY'S CATERERS, INC",57,10007,-74.0098,40.7142
14221,UNCLE MIKES,57,10007,-74.0098,40.7142
14222,CANDY'S QUALITY CATERER,57,10007,-74.0098,40.7142
14250,TERRACE GOURMET,124,10038,-74.0076,40.7102
14253,LITTLE TOKYO NYC INC,PIER 17,10038,-74.0027,40.7065
14254,HOUSE OF CREPES,PIER 17,10038,-74.0027,40.7065
14315,TRATTORIA CINQUE,363,10013,-74.0103,40.7192
14338,ROSELLA'S PIZZARIA,164,10038,-74.0058,40.7102
14446,JOE'S GINGER RESTAURANT,25,10013,-73.9984,40.7149
14473,BAY DELI INC,96,10013,-73.9995,40.716
14489,ISOBEL'S CAFETERIA,100,10007,-74.0095,40.713
14520,CHINA VILLAGE RESTAUREST INC.,94,10013,-73.9997,40.717
14521,MAJESTIC PIZZA,8,10007,-74.0104,40.71
14524,WAHKEE FAST FOOD & CAFE,150,10013,-74.0003,40.7175
14561,"KENTUCKY FRIED CHICKEN, DUNKIN' DONUTS",48,10004,-74.0122,40.7058
14578,CAFE WALL STREET,80,10005,-74.0078,40.7054
14579,J&K FUSION FOOD CORP,80,10005,-74.0078,40.7054
14584,NINJA RESTAURANT,25,10013,-74.0092,40.7166
14589,MARKJOSEPH STEAKHOUSE,261,10038,-74.0016,40.7084
14668,CORBET & CONLEY,15,10038,-74.0054,40.7081
14822,MOONCAKE FOODS,28,10013,-74.0044,40.7236
14845,HOLIDAY INN SOHO,138,10013,-74,40.7191
14867,MANHATTAN BAKE,175,10038,-74.0052,40.7067
14868,A.I.G. CAFETERIA,175,10038,-74.0052,40.7067
14869,CHARTIS,175,10038,-74.0052,40.7067
14907,MEGU,62,10013,-74.0074,40.7169
14923,2 RIVERS,10,10007,-74.0078,40.7133
14974,"6 YORK RESTAURANT, INC.",6,10013,-74.0055,40.721
14981,LUSSO,53,10013,-74.0037,40.7223
15040,BOULEY,161-163,10013,-74.0089,40.7168
15088,"THE RITZ CARLTON NEW YORK, BATTERY PARK",2,10004,-74.0164,40.7051
15128,SUBWAY,1,10004,-74.0127,40.7024
15162,BURGER KING,182,10038,-74.0097,40.7101
15173,SOPHIE'S RESTAURANT,26,10004,-74.0134,40.7055
15195,DOWNTOWN GYRO CORP,75,10013,-73.9998,40.7167
15241,ANTIQUE GARAGE,41,10013,-74.0013,40.7215
15309,MAY'S BAKERY,90,10002,-73.9938,40.7138
15310,MING QIN RESTAURANT,90,10002,-73.9938,40.7138
15391,21 PECK RESTAURANT,21-23,10038,-74.0019,40.7082
15406,DELIGHT 28 RESTAURANT,28,10013,-73.9985,40.7149
15450,THE PAN LATIN,400,10282,-74.0145,40.7179
15486,DIWAN-E- KHAAS,53,10005,-74.009,40.7089
15547,DIM SUM GO GO,5,10038,-73.9978,40.7134
15633,SWEET TREATS,57,10013,-74.0095,40.7207
15644,SMORGAS CHEF,53,10004,-74.0102,40.7064
15684,CAFE 111,111,10005,-74.0066,40.7046
15725,NICHLOE SANDWICH SHOP INC,73,10002,-73.9966,40.7109
15858,THE YOUNG MEN'S AND YOUNG WOMEN'S HEBREW ASSOCIA,200,10013,-74.008,40.723
15894,GATEHOUSE,301,10280,-74.0163,40.7103
15898,T.G.I. FRIDAY'S,47,10006,-74.0128,40.7065
15899,CHINA CHALET,47,10006,-74.0128,40.7065
15903,NEW EXCELLENT DUMPLING HOUSE,111,10013,-74.0007,40.7182
15904,WING WONG RESTAURANT,111,10013,-74.0007,40.7182
15957,NASSAU BAR & GRILL,118,10030,-74.007,40.7109
15958,LUCKY BAKERY,22A,10013,-74.0003,40.7194
15981,DA VINCI,44,10004,-74.01,40.7035
16118,SAZON,105,10013,-74.0082,40.7157
16145,SUBWAY,11-12,10038,-73.9978,40.7139
16181,ZIBETTO,102-104,10038,-74.0066,40.7096
16204,GOLDEN KRUST CARIBBEAN BAKERY & GRILL,80,10038,-74.0081,40.7098
16304,THE ODEON,145,10013,-74.008,40.717
16332,SOUTH END AVENUE BAKERY,397,10280,-74.0159,40.7113
16446,KOZINA GRILL,25,10005,-74.0081,40.707
16520,WALL STREET CATERERS,241,10038,-74.0052,40.7075
16554,SUMMIT CAFE,67,10007,-74.0067,40.715
16561,35 SMOKE & GRILL,35,10013,-74.0035,40.7199
16572,M & B CHINESE RESTAURANT,128,10013,-74.0002,40.7188
16612,SUBWAY,89,10038,-74.0027,40.7065
16613,WINE & CHILL,89,10038,-74.0027,40.7065
16614,VINO NYC BEER & WINE BAR,89,10038,-74.0027,40.7065
16615,TABASCO GRILL INC.,89,10038,-74.0027,40.7065
16616,CAJUN CAFE,89,10038,-74.0027,40.7065
16717,ANNA MARIA'S PIZZA AND SHAKE N BURGER,89,10038,-74.0027,40.7065
16838,FILLI PONTE,33-39,10013,-74.0106,40.7235
16886,BIG ALS PIZZA,9,10006,-74.0118,40.7089
16979,NATHAN'S FAMOUS,89,10038,-74.0038,40.7059
16980,UNO CHICAGO GRILL,89,10038,-74.0038,40.7059
16981,CABANA SEAPORT,89,10038,-74.0038,40.7059
16982,SEQUOIA,89,10038,-74.0038,40.7059
16983,"MRS. FIELDS, PRETZELTIME",89,10038,-74.0038,40.7059
16984,SEAPORT CAFE,89,10038,-74.0038,40.7059
16985,PACIFIC GRILL,89,10038,-74.0038,40.7059
17000,CANAL ROOM,285,10013,-74.0049,40.7211
17084,MACMENANINS RESTAURANT,89,10038,-74.0038,40.7059
17085,BODUR R E INC,89,10038,-74.0038,40.7059
17086,SKIPPERS PIERSIDE CAFE,89,10038,-74.0038,40.7059
17087,HARBOR LIGHT,89,10038,-74.0038,40.7059
17088,TAQUERIA MEXICALI,89,10038,-74.0038,40.7059
17089,CYBER CIGAR COFFEE BAR,89,10038,-74.0038,40.7059
17090,SIMPLY SEAFOOD,89,10038,-74.0038,40.7059
17091,HAAGEN-DAZS,89,10038,-74.0038,40.7059
17220,CAFE NOIR,32,10013,-74.0046,40.7228
17236,MAI HOUSE,186,10013,-74.0097,40.7194
17239,STARBUCKS COFFEE,110,10007,-74.0092,40.7133
17251,THE GRILL ROOM BAR,225,10281,-74.015,40.7113
17252,ELIXIR,225,10281,-74.015,40.7113
17256,Viet Cafe,345,10013,-74.0105,40.7184
17332,STARBUCKS COFFEE,3,10004,-74.0126,40.7027
17410,ZUTTO RESTAURANT,77,10013,-74.0089,40.7184
17428,PHO 21 VIETNAMESE RESTAURANT,21,10013,-73.9988,40.7143
17429,BBQ EXPRESS INC,21,10013,-73.9988,40.7143
17458,ERIC'S HAPPY DELI,70,10013,-74.002,40.7168
17605,KOZINA KAFE,62,10005,-74.0088,40.7072
17606,YIP'S RESTAURANT,62,10005,-74.0088,40.7072
17607,LEMONGRASS GRILL,84,10038,-74.0079,40.708
17608,TAZ CAFE,84,10038,-74.0079,40.708
17630,K SUSHI,357,10013,-74.0033,40.723
17682,"77 WARREN FOODS, LLC",77,10007,-74.0103,40.7152
17750,CAFE 55,55,10004,-74.0098,40.7036
17794,BRANDY LIBRARY LOUNGE,25,10013,-74.0074,40.7198
17853,TABLE TALES CAFE,243,10038,-74.0023,40.708
17868,SEATTLE COFFEE ROASTERS,110,10038,-74.0071,40.7089
17878,BOULEY BAKERY AND MARKET,130,10013,-74.0083,40.7167
17908,TERRACE FISH & CHIP,178,10013,-74.0074,40.7156
17909,NEW TACO HOUSE INC.,178,10013,-74.0074,40.7156
17942,SUBWAY,89A,10013,-74.0049,40.7165
17956,BLUESPOON COFFEE COMPANY,76,10007,-74.0068,40.7144
17957,BUN,143,10013,-73.9994,40.7202
18045,AMISH FINE FOOD,53,10007,-74.0102,40.7137
18060,EET,75,10013,-74.0062,40.7232
18061,SOHO MADE SOUPS,75,10013,-74.0062,40.7232
18062,STARBUCKS COFFEE,111,10013,-74.0035,40.7158
18063,WORTH CAFE,111,10013,-74.0035,40.7158
18064,YJ CHUNG CORP,111,10013,-74.0035,40.7158
18101,MERCHANTS NY CAFE,90,10006,-74.0144,40.7081
18117,MANNA CATERING,24,10013,-74.01,40.7188
18122,LUPE'S EAST L.A. KITCHEN,110,10013,-74.0047,40.7237
18152,SHAN DONG DUMPLING,106,10013,-73.9993,40.7145
18153,STARBUCKS COFFEE,250,10282,-74.0167,40.715
18154,MERRILL LYNCH,250,10282,-74.0167,40.715
18155,MERRILL LYNCH CAFTERIA,250,10282,-74.0167,40.715
18156,MERRILL LYNCH TRADERS PANTRY,250,10282,-74.0167,40.715
18157,BLOCKHEADS BURRITOS,250,10282,-74.0167,40.715
18158,YUSHI,250,10282,-74.0167,40.715
18174,EXECUTIVE DINING,1,10281,-74.0165,40.7144
18175,NEW YORK MERCANTILE EXCHANGE,1,10281,-74.0165,40.7144
18214,MAMA EATERY INC.,46,10013,-73.9996,40.715
18215,SMITH & MILLS,71,10013,-74.0098,40.7201
18239,POPEYE'S CHICKEN & BISCUTS,327,10013,-74.003,40.7202
18294,STARBUCKS COFFEE,110,10005,-74.0094,40.7046
18295,THE ORIGINAL SOUPMAN,110,10005,-74.0094,40.7046
18315,E-TEAHOUSE LLC,29,10038,-74.0086,40.7097
18371,BLIMPIE,69,10038,-74.0085,40.7095
18372,BLIMPIE,69,10038,-74.0085,40.7095
18446,MATSUGEN,66,10013,-74.0055,40.7175
18448,CRIMINAL COURT BLDG CAFETERIA,100,10013,-74.0014,40.7161
18512,ECCO RESTAURANT,124,10007,-74.0087,40.7153
18520,81 PEARL STREET VENTURE LTD.,81,10004,-74.0102,40.704
18651,CERCLE ROUGE,241,10013,-74.0059,40.7197
18662,CHURRASCARIA,221-223,10013,-74.0063,40.7192
18726,CORTON,239,10013,-74.006,40.7197
18741,MARYANN'S MEXICA,107,10013,-74.0089,40.7159
18775,"THE FINANCIER PATISSERIE, LLC",3-4,10281,-74.015,40.7142
18784,CARL'S  STEAKS,79,10007,-74.0069,40.7144
18837,CENTRICO,211,10013,-74.0065,40.7189
18838,VINOVINO,211,10013,-74.0065,40.7189
18846,JAMBA JUICE,88,10007,-74.0095,40.7152
18875,MOCCA ESPRESSO,78-82,10007,-74.0071,40.7152
18905,PORTOBELLO,83,10007,-74.011,40.7148
18970,CHAMP'S DELI,71,10006,-74.0121,40.7073
18971,BEAN N BEAN CORP.,71,10006,-74.0121,40.7073
19081,BENGAL CURRY & KABAB,65,10007,-74.01,40.7146
19205,BRICK,22,10007,-74.0077,40.7141
19213,DAKOTA ROADHOUSE,43,10007,-74.0099,40.7135
19266,STEAMER'S LANDING RESTAURANT,375,10280,-74.016,40.7111
19419,SOHO CAFE,489,10012,-73.9997,40.722
19467,N.Y. ACADEMY OF SCIENCE,250,10007,-74.0115,40.7146
19468,MOODY'S CAFETERIA,250,10007,-74.0115,40.7146
19469,TRIBECA TREATS,94,10013,-74.008,40.7157
19486,TRIO HOT PRESS & SALAD BAR,360-362,10013,-74.0037,40.7173
19546,SHINJU SUSHI,164,10005,-74.0076,40.7059
19547,"A1 SUSHI CAFE NY, INC",164,10005,-74.0076,40.7059
19554,BIDDY  EARLY'S,43,10007,-74.0093,40.714
19671,NEW FRESCO TORTILLAS III,63,10007,-74.0066,40.715
19672,NEW FRESCO TORTILLOS 8 LLC,63,10007,-74.0066,40.715
19705,FREDDO CAFE,120,10006,-74.0131,40.7091
19765,OKAMI FUSION SUSHI,63A,10007,-74.0066,40.715
19891,TURKS & FROGS TRIBECA,458,10013,-74.0095,40.7237
19919,SUBWAY,137,10013,-74.0084,40.7208
19997,BROWNIE'S CAFE,74,10006,-74.0126,40.7084
19998,MANON CAFE,74,10006,-74.0126,40.7084
20038,KIVA CAFE,139,10013,-74.0097,40.7164
20080,LE PAIN QUOTIDIEN,81,10007,-74.0096,40.7151
20103,JUST SALAD,98,10005,-74.007,40.7069
20165,JIM BRADY'S RESTAURANT,75,10038,-74.0078,40.7077
20166,LANE CAFE,75,10038,-74.0078,40.7077
20216,FLAMES STEAKHOUSE,5,10038,-74.0072,40.7074
20239,ZUCKER'S BAGELS AND SMOKED FISH,146,10007,-74.0099,40.7158
20251,SUBWAY,510,10013,-74.0033,40.7235
20252,AURORA SOHO,510,10013,-74.0033,40.7235
20325,J P MORGAN CHASE CAFETERIA,4,10004,-74.0113,40.7024
20369,BANGAL CURRY,27,10007,-74.0089,40.7131
20370,EXPRESS BBQ,27,10007,-74.0089,40.7131
20371,SHINJUKU SUSHI INC,27,10007,-74.0089,40.7131
20509,PITA EXPRESS,15,10038,-74.008,40.711
20546,PLAZA DELI,127,10038,-74.0054,40.7073
20553,17 MURRAY RESTAURANT,17,10007,-74.0081,40.7135
20564,TRIBECA'S CORNERSTONE,327,10013,-74.0106,40.7176
20575,FW MO CHA AT SILKROAD,30,10013,-73.9988,40.7147
20628,ZIGOLINI'S,66,10004,-74.0109,40.7036
20724,88 PALACE RESTAURANT,88,10002,-73.994,40.7137
20725,888 CHINA EXPRESS INC,88,10002,-73.994,40.7137
20726,WHITE SWAN BAKERY,88,10002,-73.994,40.7137
20727,"WANG ZI CATERING, INC",88,10002,-73.994,40.7137
20728,NEW WHITE SWAN BAKERY 88,88,10002,-73.994,40.7137
20732,BAR 89,89,10012,-74,40.723
20751,GOLDEN QQ BAKERY,50,10002,-73.9958,40.7136
20758,WYNDHAM GARDEN HOTEL,20,10005,-74.0091,40.7093
20759,FEDERAL CAFE LLC,20,10005,-74.0091,40.7093
20794,GOLDMAN SACHS,200,10282,-74.0136,40.7153
20850,JOBEE'S ORIENT,3,10013,-73.9994,40.719
20851,ANOTHEROOM,249,10013,-74.0058,40.7199
20854,A.I.G. CAFETERIA,72,10005,-74.0082,40.7057
20878,IZZY AND NAT'S,311,10280,-74.0163,40.7104
20882,WO HOP 17,17,10013,-73.9987,40.7142
20900,PEARL CAFE,49,10038,-74.0046,40.7082
20902,EAT-A-BAGEL,12,10004,-74.0134,40.7009
20903,EAT-A-BAGEL,12,10004,-74.0134,40.7009
20904,EAT-A-BAGEL,12,10004,-74.0134,40.7009
20912,QUIZNOS SUBS,84,10007,-74.007,40.7145
20924,FINANCIAL DISTRICT,320,10038,-74.0023,40.709
20975,FRESCO ON THE GO,114,10005,-74.0093,40.7046
21011,WATERSTONE GRILL,79,10004,-74.0103,40.704
21049,GEORGE'S,87-89,10006,-74.0137,40.7078
21060,MAY MAY DUMPLING,54-56,10013,-73.9994,40.7153
21065,"CADWALADER, WICKERSHAM & TAFT",1,10280,-74.0146,40.7101
21081,STRANGE TASTE CUISINE,20,10002,-73.9965,40.7128
21174,HOUSE OF AN SEAFOOD RESTAURANT,40,10002,-73.9961,40.7136
21178,ONE JAPAN,3,10013,-74.0049,40.7205
21247,STARBUCKS COFFEE,24,10004,-74.0144,40.7035
21248,MCKEE NELSON CAFETERIA,24,10004,-74.0144,40.7035
21249,FOOD PLAZA,118,10038,-74.0074,40.71
21285,SUSHI ONE,37,10038,-73.9987,40.712
21286,PRET 201 PEARL,201,10038,-74.0067,40.7068
21368,"KOSHER CAFE AT DISTRICT NY, LLC",111,10038,-74.0068,40.7097
21456,FINEST DUMPLING RESTAURANT,25B,10002,-73.9963,40.7129
21457,FINEST DUMPLING RESTAURANT,25B,10002,-73.9963,40.7129
21525,P.J. CLARKE'S ON THE HUDSON,4,10281,-74.015,40.7142
21563,UNITED FEDERATION OF TEACHERS,52,10004,-74.0127,40.7065
21564,CAFE BRAVO,52,10004,-74.0127,40.7065
21565,UNITED FEDERATION OF TEACHERS,52,10004,-74.0127,40.7065
21575,DIVA,341,10013,-74.0035,40.7226
21763,M AND W BAKERY INC,25,10002,-73.9966,40.7135
21790,RESTAURANT ASSOC,388,10013,-74.0101,40.7205
21791,CITIGROUP EXECUTIVE DINING ROOM,388,10013,-74.0101,40.7205
21792,CITIGROUP CONFERENCE DINING,388,10013,-74.0101,40.7205
21819,BLIMPIE,38,10038,-74.0066,40.7118
21820,STARBUCKS COFFEE,38,10038,-74.0066,40.7118
21873,WOLFGANG'S STEAKHOUSE,409,10013,-74.01,40.7212
21877,SUBWAY,45,10038,-74.0053,40.7101
21896,SANTOS PARTY HOUSE,100,10013,-74.0012,40.7177
21921,HUGHES HUBBARD & REED LLP,1,10004,-74.0144,40.7032
22006,NEW YORK STOCK EXCHANGE EXECUTIVE SERVICES,20,10004,-74.011,40.7066
22155,MOOMAH CAFE,161,10013,-74.0083,40.7218
22169,DANUBE,30,10013,-74.0091,40.7168
22256,CANAL STREET CAFE AND DELI INC.,369,10013,-74.0043,40.7211
22295,SUTEISHI,24,10038,-74.0018,40.7081
22298,"JMP VENTURES, LLC.",2,10038,-74.0073,40.7073
22385,NEW YORK STOCK EXCHANGE,18,10004,-74.011,40.7066
22461,KANAZAWA,60-62,10004,-74.0098,40.7052
22469,FULTON EMPANADAS,72-78,10038,-74.0083,40.7096
22478,CHECKERS,77,10007,-74.0068,40.7144
22495,SOUTHWEST NY,2,10280,-74.0141,40.7123
22496,NOMURA SECURITIES,2,10280,-74.0141,40.7123
22497,CIAO BELLA GELATO,2,10280,-74.0141,40.7123
22621,BARBARINI INC,225,10038,-74.0021,40.7075
22634,ONE STELLA MARIS,213-219,10038,-74.0025,40.7073
22737,BIN NO 220,220,10038,-74.0023,40.7074
22752,FIDELITY INVESTMENTS,1,10280,-74.0152,40.7113
22753,DEVON AND BLAKELY,1,10280,-74.0152,40.7113
22756,HAMPTON INN - SEAPORT/ FINANCIAL DISTRICT,320,10038,-74.0022,40.709
22758,ALICE AUSTEN,12,10004,-74.0132,40.7011
22760,RSJ GROUP CORPORATION,141,10013,-74.0079,40.7164
22761,ROSAN JIN,141,10013,-74.0079,40.7164
22832,PONGSRI THAI RESTAURANT,106,10013,-73.9999,40.7161
22850,THE DUBLIN PUB,45,10004,-74.0103,40.7043
22853,LIBERATOS PIZZA,17,10005,-74.0078,40.7068
22872,FOREMOST GLATT KOSHER CATERES,18,10280,-74.0183,40.7063
22873,FOREMOST GLATT KOSHER CATERES,18,10280,-74.0183,40.7063
22874,FOREMOST GLATT KOSHER CATERES,18,10280,-74.0183,40.7063
22875,FOREMOST GLATT KOSHER CATERES,18,10280,-74.0183,40.7063
22923,CITIBABES CAFE,52,10013,-74.001,40.7218
22940,"VINTRY, LLC.",57,10004,-74.0102,40.7044
22963,EAT-A-BAGEL,000,10004,-74.0132,40.7012
22994,TRIBECA SUSHI INC.,374,10013,-74.0102,40.7199
23027,THE GREENWICH KITCHEN,377,10013,-74.0102,40.7198
23117,NEW YORK LAW SCHOOL,185,10013,-74.0072,40.7181
23177,ONLINE RESTAURANT CORP,61,10007,-74.0094,40.7148
23310,BLAUE GANS,139,10013,-74.0078,40.7163
23313,STARBUCKS COFFEE,115,10006,-74.011,40.7086
23314,PANINI,115,10006,-74.011,40.7086
23315,TRINITY,115,10006,-74.011,40.7086
23320,SUSHI A LA KAWA 22 INC,22,10005,-74.009,40.7092
23323,CAFE 101 16TH FLOOR CAFETERIA,101,10007,-74.0119,40.7138
23330,LANDMARC,179,10013,-74.0073,40.718
23407,AJ KELLEY'S,6,10004,-74.0127,40.704
23411,WARD III,111,10013,-74.0084,40.7158
23465,BANH ME,73,10007,-74.0098,40.7148
23489,VOX NY,33,10038,-74.0016,40.7079
23508,PEARL MAIDEN BURGER INC,101,10038,-74.0071,40.707
23520,DUANE STREET HOTEL,130,10013,-74.0074,40.7161
23539,SALUGGI'S,325,10013,-74.0038,40.7202
23547,BARNES AND NOBLE BOOKSELLERS,97,10007,-74.0112,40.7156
23557,CHAMBERS CHURCH PIZZA,154,10007,-74.0102,40.7159
23583,FINANCIER PATISSERIE,62,10004,-74.01,40.7046
23585,ROSARIO'S KITCHEN LLC,227,10013,-74.0062,40.7193
23631,"CAFE GROPPI, INC",32,10004,-74.0108,40.7031
23633,GREENWICH GRILL,428,10013,-74.0097,40.7224
23649,SUBWAY SANDWICHES,51,10007,-74.0096,40.7141
23709,TRIBECA DELI,374,10013,-74.0043,40.7211
23738,AUNT BUTCHIES CAFE,4,10004,-74.0119,40.7016
23739,WHITEHALL PRETZEL & ICE CREAM,4,10004,-74.0119,40.7016
23740,CHARCOAL GRILL,89,10038,-74.0027,40.7065
23741,SWAROVSKI CRYSTALLIZED,499,10012,-73.9996,40.7221
23815,STARBUCKS COFFEE,405,10013,-74.0024,40.7188
23829,BLIMPIE,86,10007,-74.0095,40.7152
23835,MAX TRIBECA,181,10013,-74.0102,40.7174
23924,WHICHCRAFT,397,10013,-74.0101,40.7207
23978,DUNKIN' DONUTS,2,10007,-74.0102,40.7099
23988,TOYKO BAY ENTERPRISE,183,10013,-74.0101,40.7174
23995,CONCESSION STAND,100,10013,-74.0014,40.7161
24004,STARBUCKS COFFEE,241,10013,-74.0001,40.7181
24024,HAMPTON INN,54,10013,-74.0054,40.7237
24095,BMD PASTRY,10,10005,-74.0082,40.7076
24099,DUNKIN' DONUTS,5,10007,-74.0081,40.7127
24160,SMYTH HOTEL,85,10007,-74.0095,40.7152
24186,GOLDEN KRUST CARIBBEAN BAKERY,166A,10013,-74.0077,40.7152
